FLOCK 4H-22             
1 66725U 25276BM  25364.14693139  .00010315  00000+0  51608-3 0  9996
2 66725  97.4375  75.5909 0001607 246.0875 114.0190 15.17603825  4765
FLOCK 4H-23             
1 66726U 25276BN  25364.15182219  .00009197  00000+0  46420-3 0  9992
2 66726  97.4440  75.6147 0003861 211.9623 148.1377 15.17323537  4764
FLOCK 4H-24             
1 66727U 25276BP  25364.14963786  .00009419  00000+0  47387-3 0  9998
2 66727  97.4438  75.6197 0003125 228.3136 131.7830 15.17431270  4767
FLOCK 4H-25             
1 66728U 25276BQ  25364.13130147  .00009564  00000+0  46904-3 0  9990
2 66728  97.4396  75.6235 0001877 110.1764 249.9672 15.18323207  4049
FLOCK 4H-26             
1 66729U 25276BR  25364.08771346  .00010973  00000+0  55421-3 0  9997
2 66729  97.4392  75.5280 0003961 228.4429 131.6465 15.17249862  4750
FLOCK 4H-27             
1 66730U 25276BS  25364.13406141  .00010876  00000+0  53483-3 0  9991
2 66730  97.4373  75.6098 0001619 123.6849 236.4539 15.18192840  4760
FLOCK 4H-28             
1 66731U 25276BT  25364.15341593  .00015759  00000+0  79420-3 0  9997
2 66731  97.4379  75.5881 0003580 229.1382 130.9541 15.17242720  4762
FLOCK 4H-29             
1 66732U 25276BU  25364.15049844  .00009681  00000+0  48771-3 0  9994
2 66732  97.4370  75.5861 0002232 240.8143 119.2868 15.17380644  4760
FLOCK 4H-30             
1 66733U 25276BV  25364.15173481  .00109103  00000+0  53717-2 0  9995
2 66733  97.4434  75.6137 0004221 219.9681 140.1243 15.17484724  4767
FLOCK 4H-31             
1 66734U 25276BW  25364.15186763  .00016017  00000+0  80556-3 0  9996
2 66734  97.4368  75.5845 0002725 233.6595 126.4387 15.17311283  4768
FLOCK 4H-32             
1 66735U 25276BX  25364.15216396  .00012456  00000+0  62696-3 0  9991
2 66735  97.4426  75.6091 0003908 225.7188 134.3725 15.17339905  4767
FLOCK 4H-33             
1 66736U 25276BY  25364.13041247  .00012429  00000+0  60656-3 0  9995
2 66736  97.4426  75.6374 0003179 139.7596 220.3874 15.18424072  4761
