CCSDS_OMM_VERS = 2.0
CREATION_DATE  = 
ORIGINATOR     = 

OBJECT_NAME    = FLOCK 4H-22
OBJECT_ID      = 2025-276BM
CENTER_NAME    = EARTH
REF_FRAME      = TEME
TIME_SYSTEM    = UTC
MEAN_ELEMENT_THEORY = SGP/SGP4

EPOCH          = 2025-12-30T03:31:34.872096
MEAN_MOTION    = 15.17603825
ECCENTRICITY   = .0001607
INCLINATION    = 97.4375
RA_OF_ASC_NODE = 75.5909
ARG_OF_PERICENTER = 246.0875
MEAN_ANOMALY   = 114.0190

EPHEMERIS_TYPE = 0
CLASSIFICATION_TYPE = U
NORAD_CAT_ID   = 66725
ELEMENT_SET_NO = 999
REV_AT_EPOCH   = 476
BSTAR          = .51608E-3
MEAN_MOTION_DOT = .10315E-3
MEAN_MOTION_DDOT = 0

CCSDS_OMM_VERS = 2.0
CREATION_DATE  = 
ORIGINATOR     = 

OBJECT_NAME    = FLOCK 4H-23
OBJECT_ID      = 2025-276BN
CENTER_NAME    = EARTH
REF_FRAME      = TEME
TIME_SYSTEM    = UTC
MEAN_ELEMENT_THEORY = SGP/SGP4

EPOCH          = 2025-12-30T03:38:37.437216
MEAN_MOTION    = 15.17323537
ECCENTRICITY   = .0003861
INCLINATION    = 97.4440
RA_OF_ASC_NODE = 75.6147
ARG_OF_PERICENTER = 211.9623
MEAN_ANOMALY   = 148.1377

EPHEMERIS_TYPE = 0
CLASSIFICATION_TYPE = U
NORAD_CAT_ID   = 66726
ELEMENT_SET_NO = 999
REV_AT_EPOCH   = 476
BSTAR          = .4642E-3
MEAN_MOTION_DOT = .9197E-4
MEAN_MOTION_DDOT = 0

CCSDS_OMM_VERS = 2.0
CREATION_DATE  = 
ORIGINATOR     = 

OBJECT_NAME    = FLOCK 4H-24
OBJECT_ID      = 2025-276BP
CENTER_NAME    = EARTH
REF_FRAME      = TEME
TIME_SYSTEM    = UTC
MEAN_ELEMENT_THEORY = SGP/SGP4

EPOCH          = 2025-12-30T03:35:28.711104
MEAN_MOTION    = 15.17431270
ECCENTRICITY   = .0003125
INCLINATION    = 97.4438
RA_OF_ASC_NODE = 75.6197
ARG_OF_PERICENTER = 228.3136
MEAN_ANOMALY   = 131.7830

EPHEMERIS_TYPE = 0
CLASSIFICATION_TYPE = U
NORAD_CAT_ID   = 66727
ELEMENT_SET_NO = 999
REV_AT_EPOCH   = 476
BSTAR          = .47387E-3
MEAN_MOTION_DOT = .9419E-4
MEAN_MOTION_DDOT = 0

CCSDS_OMM_VERS = 2.0
CREATION_DATE  = 
ORIGINATOR     = 

OBJECT_NAME    = FLOCK 4H-25
OBJECT_ID      = 2025-276BQ
CENTER_NAME    = EARTH
REF_FRAME      = TEME
TIME_SYSTEM    = UTC
MEAN_ELEMENT_THEORY = SGP/SGP4

EPOCH          = 2025-12-30T03:09:04.447008
MEAN_MOTION    = 15.18323207
ECCENTRICITY   = .0001877
INCLINATION    = 97.4396
RA_OF_ASC_NODE = 75.6235
ARG_OF_PERICENTER = 110.1764
MEAN_ANOMALY   = 249.9672

EPHEMERIS_TYPE = 0
CLASSIFICATION_TYPE = U
NORAD_CAT_ID   = 66728
ELEMENT_SET_NO = 999
REV_AT_EPOCH   = 404
BSTAR          = .46904E-3
MEAN_MOTION_DOT = .9564E-4
MEAN_MOTION_DDOT = 0

CCSDS_OMM_VERS = 2.0
CREATION_DATE  = 
ORIGINATOR     = 

OBJECT_NAME    = FLOCK 4H-26
OBJECT_ID      = 2025-276BR
CENTER_NAME    = EARTH
REF_FRAME      = TEME
TIME_SYSTEM    = UTC
MEAN_ELEMENT_THEORY = SGP/SGP4

EPOCH          = 2025-12-30T02:06:18.442944
MEAN_MOTION    = 15.17249862
ECCENTRICITY   = .0003961
INCLINATION    = 97.4392
RA_OF_ASC_NODE = 75.5280
ARG_OF_PERICENTER = 228.4429
MEAN_ANOMALY   = 131.6465

EPHEMERIS_TYPE = 0
CLASSIFICATION_TYPE = U
NORAD_CAT_ID   = 66729
ELEMENT_SET_NO = 999
REV_AT_EPOCH   = 475
BSTAR          = .55421E-3
MEAN_MOTION_DOT = .10973E-3
MEAN_MOTION_DDOT = 0

CCSDS_OMM_VERS = 2.0
CREATION_DATE  = 
ORIGINATOR     = 

OBJECT_NAME    = FLOCK 4H-27
OBJECT_ID      = 2025-276BS
CENTER_NAME    = EARTH
REF_FRAME      = TEME
TIME_SYSTEM    = UTC
MEAN_ELEMENT_THEORY = SGP/SGP4

EPOCH          = 2025-12-30T03:13:02.905824
MEAN_MOTION    = 15.18192840
ECCENTRICITY   = .0001619
INCLINATION    = 97.4373
RA_OF_ASC_NODE = 75.6098
ARG_OF_PERICENTER = 123.6849
MEAN_ANOMALY   = 236.4539

EPHEMERIS_TYPE = 0
CLASSIFICATION_TYPE = U
NORAD_CAT_ID   = 66730
ELEMENT_SET_NO = 999
REV_AT_EPOCH   = 476
BSTAR          = .53483E-3
MEAN_MOTION_DOT = .10876E-3
MEAN_MOTION_DDOT = 0

CCSDS_OMM_VERS = 2.0
CREATION_DATE  = 
ORIGINATOR     = 

OBJECT_NAME    = FLOCK 4H-28
OBJECT_ID      = 2025-276BT
CENTER_NAME    = EARTH
REF_FRAME      = TEME
TIME_SYSTEM    = UTC
MEAN_ELEMENT_THEORY = SGP/SGP4

EPOCH          = 2025-12-30T03:40:55.136352
MEAN_MOTION    = 15.17242720
ECCENTRICITY   = .000358
INCLINATION    = 97.4379
RA_OF_ASC_NODE = 75.5881
ARG_OF_PERICENTER = 229.1382
MEAN_ANOMALY   = 130.9541

EPHEMERIS_TYPE = 0
CLASSIFICATION_TYPE = U
NORAD_CAT_ID   = 66731
ELEMENT_SET_NO = 999
REV_AT_EPOCH   = 476
BSTAR          = .7942E-3
MEAN_MOTION_DOT = .15759E-3
MEAN_MOTION_DDOT = 0

CCSDS_OMM_VERS = 2.0
CREATION_DATE  = 
ORIGINATOR     = 

OBJECT_NAME    = FLOCK 4H-29
OBJECT_ID      = 2025-276BU
CENTER_NAME    = EARTH
REF_FRAME      = TEME
TIME_SYSTEM    = UTC
MEAN_ELEMENT_THEORY = SGP/SGP4

EPOCH          = 2025-12-30T03:36:43.065216
MEAN_MOTION    = 15.17380644
ECCENTRICITY   = .0002232
INCLINATION    = 97.4370
RA_OF_ASC_NODE = 75.5861
ARG_OF_PERICENTER = 240.8143
MEAN_ANOMALY   = 119.2868

EPHEMERIS_TYPE = 0
CLASSIFICATION_TYPE = U
NORAD_CAT_ID   = 66732
ELEMENT_SET_NO = 999
REV_AT_EPOCH   = 476
BSTAR          = .48771E-3
MEAN_MOTION_DOT = .9681E-4
MEAN_MOTION_DDOT = 0

CCSDS_OMM_VERS = 2.0
CREATION_DATE  = 
ORIGINATOR     = 

OBJECT_NAME    = FLOCK 4H-30
OBJECT_ID      = 2025-276BV
CENTER_NAME    = EARTH
REF_FRAME      = TEME
TIME_SYSTEM    = UTC
MEAN_ELEMENT_THEORY = SGP/SGP4

EPOCH          = 2025-12-30T03:38:29.887584
MEAN_MOTION    = 15.17484724
ECCENTRICITY   = .0004221
INCLINATION    = 97.4434
RA_OF_ASC_NODE = 75.6137
ARG_OF_PERICENTER = 219.9681
MEAN_ANOMALY   = 140.1243

EPHEMERIS_TYPE = 0
CLASSIFICATION_TYPE = U
NORAD_CAT_ID   = 66733
ELEMENT_SET_NO = 999
REV_AT_EPOCH   = 476
BSTAR          = .53717E-2
MEAN_MOTION_DOT = .109103E-2
MEAN_MOTION_DDOT = 0

CCSDS_OMM_VERS = 2.0
CREATION_DATE  = 
ORIGINATOR     = 

OBJECT_NAME    = FLOCK 4H-31
OBJECT_ID      = 2025-276BW
CENTER_NAME    = EARTH
REF_FRAME      = TEME
TIME_SYSTEM    = UTC
MEAN_ELEMENT_THEORY = SGP/SGP4

EPOCH          = 2025-12-30T03:38:41.363232
MEAN_MOTION    = 15.17311283
ECCENTRICITY   = .0002725
INCLINATION    = 97.4368
RA_OF_ASC_NODE = 75.5845
ARG_OF_PERICENTER = 233.6595
MEAN_ANOMALY   = 126.4387

EPHEMERIS_TYPE = 0
CLASSIFICATION_TYPE = U
NORAD_CAT_ID   = 66734
ELEMENT_SET_NO = 999
REV_AT_EPOCH   = 476
BSTAR          = .80556E-3
MEAN_MOTION_DOT = .16017E-3
MEAN_MOTION_DDOT = 0

CCSDS_OMM_VERS = 2.0
CREATION_DATE  = 
ORIGINATOR     = 

OBJECT_NAME    = FLOCK 4H-32
OBJECT_ID      = 2025-276BX
CENTER_NAME    = EARTH
REF_FRAME      = TEME
TIME_SYSTEM    = UTC
MEAN_ELEMENT_THEORY = SGP/SGP4

EPOCH          = 2025-12-30T03:39:06.966144
MEAN_MOTION    = 15.17339905
ECCENTRICITY   = .0003908
INCLINATION    = 97.4426
RA_OF_ASC_NODE = 75.6091
ARG_OF_PERICENTER = 225.7188
MEAN_ANOMALY   = 134.3725

EPHEMERIS_TYPE = 0
CLASSIFICATION_TYPE = U
NORAD_CAT_ID   = 66735
ELEMENT_SET_NO = 999
REV_AT_EPOCH   = 476
BSTAR          = .62696E-3
MEAN_MOTION_DOT = .12456E-3
MEAN_MOTION_DDOT = 0

CCSDS_OMM_VERS = 2.0
CREATION_DATE  = 
ORIGINATOR     = 

OBJECT_NAME    = FLOCK 4H-33
OBJECT_ID      = 2025-276BY
CENTER_NAME    = EARTH
REF_FRAME      = TEME
TIME_SYSTEM    = UTC
MEAN_ELEMENT_THEORY = SGP/SGP4

EPOCH          = 2025-12-30T03:07:47.637408
MEAN_MOTION    = 15.18424072
ECCENTRICITY   = .0003179
INCLINATION    = 97.4426
RA_OF_ASC_NODE = 75.6374
ARG_OF_PERICENTER = 139.7596
MEAN_ANOMALY   = 220.3874

EPHEMERIS_TYPE = 0
CLASSIFICATION_TYPE = U
NORAD_CAT_ID   = 66736
ELEMENT_SET_NO = 999
REV_AT_EPOCH   = 476
BSTAR          = .60656E-3
MEAN_MOTION_DOT = .12429E-3
MEAN_MOTION_DDOT = 0

